STARLINK-1245_new
1 15215C 20012AP  21326.13281551 -.00016943  00000-0 -11351-2 0  3264
2 15215  53.0529 228.1428 0002275  69.0238  78.9505 15.06417362    14
STARLINK-1245_old
1 25215C 20012AP  21325.12690617  .00007411  00000-0  49649-3 0  3258
2 25215  53.0536 232.6583 0002272  67.2870  22.5670 15.06395111    18
